ONEWEB-0228             
1 48780U 21045P   23334.80518496 -.00000115  00000+0 -33987-3 0  9996
2 48780  87.8995  84.1999 0001400 103.0244 257.1043 13.15548020123269
